NORAD_CAT_ID,OBJECT_NAME,OBJECT_TYPE,EPOCH,MEAN_MOTION,ECCENTRICITY,INCLINATION,RA_OF_ASC_NODE,ARG_OF_PERICENTER,MEAN_ANOMALY,BSTAR,MEAN_MOTION_DOT,MEAN_MOTION_DDOT,TLE_LINE0,TLE_LINE1,TLE_LINE2,SEMIMAJOR_AXIS,PERIOD,APOGEE,PERIGEE,DECAYED
52476.0,STARLINK-3835,PAYLOAD,2022-11-27 10:31:01,15.08844621,0.0002378,53.2198,28.2732,39.1939,320.9225,6.8085e-05,7.96e-06,0.0,0 STARLINK-3835,1 52476U 22049AB  22331.43821056  .00000796  00000-0  68085-4 0  9994,2 52476  53.2198  28.2732 0002378  39.1939 320.9225 15.08844621 32739,6917.866,95.437,541.376,538.086,0.0
52476.0,STARLINK-3835,PAYLOAD,2022-11-28 04:00:16,15.08832627,0.0002308,53.2199,25.0032,34.1166,325.9974,-9.1659e-05,-1.747e-05,0.0,0 STARLINK-3835,1 52476U 22049AB  22332.16686219 -.00001747  00000-0 -91659-4 0  9997,2 52476  53.2199  25.0032 0002308  34.1166 325.9974 15.08832627 31769,6917.903,95.438,541.365,538.1709999999998,0.0
52476.0,STARLINK-3835,PAYLOAD,2022-11-28 10:21:49,15.08833831,0.0002342,53.2198,23.814,32.1357,327.9777,-7.4743e-05,-1.478e-05,0.0,0 STARLINK-3835,1 52476U 22049AB  22332.43182077 -.00001478  00000-0 -74743-4 0  9996,2 52476  53.2198  23.8140 0002342  32.1357 327.9777 15.08833831 32887,6917.899,95.438,541.384,538.144,0.0
52476.0,STARLINK-3835,PAYLOAD,2022-11-29 10:12:36,15.08829804,0.0002356,53.2194,19.3539,32.8915,327.2224,5.9961e-05,6.66e-06,0.0,0 STARLINK-3835,1 52476U 22049AB  22333.42542274  .00000666  00000-0  59961-4 0  9996,2 52476  53.2194  19.3539 0002356  32.8915 327.2224 15.08829804 33030,6917.9119999999975,95.438,541.406,538.1469999999998,0.0
52476.0,STARLINK-3835,PAYLOAD,2022-11-29 13:23:22,15.0883107,0.0002429,53.2188,18.7585,29.4239,330.6889,9.6125e-05,1.241e-05,0.0,0 STARLINK-3835,1 52476U 22049AB  22333.55790243  .00001241  00000-0  96125-4 0  9994,2 52476  53.2188  18.7585 0002429  29.4239 330.6889 15.08831070 31973,6917.908,95.438,541.453,538.092,0.0
52476.0,STARLINK-3835,PAYLOAD,2022-11-30 11:38:46,15.08835641,0.0002406,53.2192,14.5953,28.6953,331.4171,5.6238e-05,6.07e-06,0.0,0 STARLINK-3835,1 52476U 22049AB  22334.48526599  .00000607  00000-0  56238-4 0  9994,2 52476  53.2192  14.5953 0002406  28.6953 331.4171 15.08835641 33197,6917.894,95.438,541.423,538.094,0.0
52476.0,STARLINK-3835,PAYLOAD,2022-12-01 11:29:33,15.08841747,0.0002507,53.2195,10.1346,28.8557,331.2574,5.5503e-05,5.95e-06,0.0,0 STARLINK-3835,1 52476U 22049AB  22335.47886472  .00000595  00000-0  55503-4 0  9993,2 52476  53.2195  10.1346 0002507  28.8557 331.2574 15.08841747 33348,6917.875,95.437,541.474,538.006,0.0
52476.0,STARLINK-3835,PAYLOAD,2022-12-01 19:26:29,15.08846467,0.0002557,53.2196,8.6477,29.5719,330.5418,0.00011299,1.511e-05,0.0,0 STARLINK-3835,1 52476U 22049AB  22335.81005961  .00001511  00000-0  11299-3 0  9999,2 52476  53.2196   8.6477 0002557  29.5719 330.5418 15.08846467 32318,6917.861,95.437,541.495,537.957,0.0
52476.0,STARLINK-3835,PAYLOAD,2022-12-02 11:20:21,15.08838816,0.0002279,53.2197,5.6733,32.4725,327.6407,4.1407e-05,3.71e-06,0.0,0 STARLINK-3835,1 52476U 22049AB  22336.47246589  .00000371  00000-0  41407-4 0  9993,2 52476  53.2197   5.6733 0002279  32.4725 327.6407 15.08838816 32417,6917.884,95.438,541.326,538.172,0.0
52476.0,STARLINK-3835,PAYLOAD,2022-12-03 11:11:08,15.08836317,0.0002435,53.22,1.213,31.8218,328.2921,7.7953e-05,9.52e-06,0.0,0 STARLINK-3835,1 52476U 22049AB  22337.46606536  .00000952  00000-0  77953-4 0  9995,2 52476  53.2200   1.2130 0002435  31.8218 328.2921 15.08836317 33647,6917.892,95.438,541.441,538.072,0.0
52476.0,STARLINK-3835,PAYLOAD,2022-12-03 19:08:03,15.08840996,0.0002482,53.2199,359.7261,32.8778,327.2368,-2.263e-05,-6.49e-06,0.0,0 STARLINK-3835,1 52476U 22049AB  22337.79726542 -.00000649  00000-0 -22630-4 0  9998,2 52476  53.2199 359.7261 0002482  32.8778 327.2368 15.08840996 32612,6917.877,95.437,541.4590000000002,538.025,0.0
52476.0,STARLINK-3835,PAYLOAD,2022-12-04 12:37:18,15.08841367,0.0002587,53.2195,356.4559,34.3571,325.7588,2.9148000000000013e-05,1.75e-06,0.0,0 STARLINK-3835,1 52476U 22049AB  22338.52590493  .00000175  00000-0  29148-4 0  9997,2 52476  53.2195 356.4559 0002587  34.3571 325.7588 15.08841367 33808,6917.876,95.437,541.531,537.952,0.0
52476.0,STARLINK-3835,PAYLOAD,2022-12-04 18:58:50,15.088474800000002,0.0002593,53.2195,355.2665,34.6705,325.4456,8.0392e-05,9.92e-06,0.0,0 STARLINK-3835,1 52476U 22049AB  22338.79085937  .00000992  00000-0  80392-4 0  9993,2 52476  53.2195 355.2665 0002593  34.6705 325.4456 15.08847480 33849,6917.858,95.437,541.516,537.929,0.0
52476.0,STARLINK-3835,PAYLOAD,2022-12-05 06:06:32,15.0884021,0.0002454,53.2191,353.1843,37.3224,322.7938,5.6781e-05,6.15e-06,0.0,0 STARLINK-3835,1 52476U 22049AB  22339.25454356  .00000615  00000-0  56781-4 0  9997,2 52476  53.2191 353.1843 0002454  37.3224 322.7938 15.08840210 33919,6917.88,95.438,541.442,538.047,0.0
52476.0,STARLINK-3835,PAYLOAD,2022-12-05 12:28:04,15.08843645,0.0002427,53.2189,351.9942,37.9954,322.1209,7.1769e-05,8.54e-06,0.0,0 STARLINK-3835,1 52476U 22049AB  22339.51950041  .00000854  00000-0  71769-4 0  9996,2 52476  53.2189 351.9942 0002427  37.9954 322.1209 15.08843645 32872,6917.869000000002,95.437,541.413,538.055,0.0
52476.0,STARLINK-3835,PAYLOAD,2022-12-06 07:32:42,15.08846095,0.0002663,53.2189,348.4276,36.8013,323.3161,0.0001188,1.603e-05,0.0,0 STARLINK-3835,1 52476U 22049AB  22340.31437634  .00001603  00000-0  11880-3 0  9994,2 52476  53.2189 348.4276 0002663  36.8013 323.3161 15.08846095 34075,6917.861999999999,95.437,541.569,537.885,0.0
52476.0,STARLINK-3835,PAYLOAD,2022-12-06 17:05:02,15.08830971,0.0002444,53.2198,346.6428,30.4717,329.6416,-7.1173e-05,-1.421e-05,0.0,0 STARLINK-3835,1 52476U 22049AB  22340.71183193 -.00001421  00000-0 -71173-4 0  9998,2 52476  53.2198 346.6428 0002444  30.4717 329.6416 15.08830971 34137,6917.908,95.438,541.464,538.082,0.0
52476.0,STARLINK-3835,PAYLOAD,2022-12-06 23:26:34,15.08831583,0.0002674,53.2189,345.4537,32.4987,327.6169,-9.6773e-05,-1.828e-05,0.0,0 STARLINK-3835,1 52476U 22049AB  22340.97679372 -.00001828  00000-0 -96773-4 0  9999,2 52476  53.2189 345.4537 0002674  32.4987 327.6169 15.08831583 33098,6917.906,95.438,541.621,537.9209999999998,0.0
52476.0,STARLINK-3835,PAYLOAD,2022-12-07 16:55:49,15.08832903,0.0002494,53.2194,342.1829,35.5155,324.6003,-5.1204e-05,-1.103e-05,0.0,0 STARLINK-3835,1 52476U 22049AB  22341.70543528 -.00001103  00000-0 -51204-4 0  9990,2 52476  53.2194 342.1829 0002494  35.5155 324.6003 15.08832903 34286,6917.901999999999,95.438,541.492,538.0419999999998,0.0
52476.0,STARLINK-3835,PAYLOAD,2022-12-08 00:52:45,15.08837614,0.0002517,53.2192,340.6961,35.2147,324.9011,6.5884e-06,-1.84e-06,0.0,0 STARLINK-3835,1 52476U 22049AB  22342.03663227 -.00000184  00000-0  65884-5 0  9993,2 52476  53.2192 340.6961 0002517  35.2147 324.9011 15.08837614 33250,6917.888000000001,95.438,541.494,538.011,0.0
52476.0,STARLINK-3835,PAYLOAD,2022-12-08 07:14:17,15.0884478,0.000256,53.2195,339.5082,32.7243,327.3907,4.5389e-05,4.34e-06,0.0,0 STARLINK-3835,1 52476U 22049AB  22342.30158668  .00000434  00000-0  45389-4 0  9995,2 52476  53.2195 339.5082 0002560  32.7243 327.3907 15.08844780 34378,6917.866,95.437,541.502,537.96,0.0
52476.0,STARLINK-3835,PAYLOAD,2022-12-08 16:46:34,15.08857635,0.0002571,53.2202,337.7239,33.0617,327.0536,7.7232e-05,9.42e-06,0.0,0 STARLINK-3835,1 52476U 22049AB  22342.69901511  .00000942  00000-0  77232-4 0  9996,2 52476  53.2202 337.7239 0002571  33.0617 327.0536 15.08857635 33357,6917.826,95.436,541.47,537.913,0.0
52476.0,STARLINK-3835,PAYLOAD,2022-12-09 10:15:49,15.08843902,0.0002249,53.2199,334.4537,3.5079,356.5929,0.00017604,2.515e-05,0.0,0 STARLINK-3835,1 52476U 22049AB  22343.42765814  .00002515  00000-0  17604-3 0  9996,2 52476  53.2199 334.4537 0002249   3.5079 356.5929 15.08843902 33460,6917.868,95.437,541.289,538.178,0.0
52476.0,STARLINK-3835,PAYLOAD,2022-12-09 16:37:24,15.08816366,0.000193,53.2198,333.2654,344.496,15.5973,-0.00013544,-2.442e-05,0.0,0 STARLINK-3835,1 52476U 22049AB  22343.69264141 -.00002442  00000-0 -13544-3 0  9992,2 52476  53.2198 333.2654 0001930 344.4960  15.5973 15.08816366 33508,6917.953,95.439,541.153,538.482,0.0
52476.0,STARLINK-3835,PAYLOAD,2022-12-10 06:55:53,15.08825971,0.0002466,53.2195,330.5891,37.3471,322.7692,-0.00021263,-3.67e-05,0.0,0 STARLINK-3835,1 52476U 22049AB  22344.28881271 -.00003670  00000-0 -21263-3 0  9998,2 52476  53.2195 330.5891 0002466  37.3471 322.7692 15.08825971 33590,6917.9230000000025,95.438,541.494,538.082,0.0
52476.0,STARLINK-3835,PAYLOAD,2022-12-11 05:11:16,15.08838622,0.0002482,53.2208,326.4258,35.9012,324.2147,9.0621e-05,1.154e-05,0.0,0 STARLINK-3835,1 52476U 22049AB  22345.21616198  .00001154  00000-0  90621-4 0  9994,2 52476  53.2208 326.4258 0002482  35.9012 324.2147 15.08838622 33734,6917.885,95.438,541.467,538.033,0.0
52476.0,STARLINK-3835,PAYLOAD,2022-12-12 09:48:13,15.08846467,0.0002913,53.2184,321.0725,29.2673,330.8482,0.00029175,4.359e-05,0.0,0 STARLINK-3835,1 52476U 22049AB  22346.40848466  .00004359  00000-0  29175-3 0  9996,2 52476  53.2184 321.0725 0002913  29.2673 330.8482 15.08846467 33916,6917.861,95.437,541.741,537.71,0.0
52476.0,STARLINK-3835,PAYLOAD,2022-12-13 09:38:59,15.08842855,0.0002639,53.2196,316.6113,27.5766,332.5366,-8.2678e-05,-1.604e-05,0.0,0 STARLINK-3835,1 52476U 22049AB  22347.40207912 -.00001604  00000-0 -82678-4 0  9992,2 52476  53.2196 316.6113 0002639  27.5766 332.5366 15.08842855 35143,6917.871999999999,95.437,541.562,537.911,0.0
52476.0,STARLINK-3835,PAYLOAD,2022-12-14 09:29:46,15.08850122,0.0002518,53.2185,312.1513,27.9508,332.1619,0.00016431,2.328e-05,0.0,0 STARLINK-3835,1 52476U 22049AB  22348.39567347  .00002328  00000-0  16431-3 0  9997,2 52476  53.2185 312.1513 0002518  27.9508 332.1619 15.08850122 34210,6917.849,95.437,541.456,537.9730000000002,0.0
